OBJECT_NAME,OBJECT_ID,EPOCH,MEAN_MOTION,ECCENTRICITY,INCLINATION,RA_OF_ASC_NODE,ARG_OF_PERICENTER,MEAN_ANOMALY,EPHEMERIS_TYPE,CLASSIFICATION_TYPE,NORAD_CAT_ID,ELEMENT_SET_NO,REV_AT_EPOCH,BSTAR,MEAN_MOTION_DOT,MEAN_MOTION_DDOT
TELEOS-2,2023-057C,2026-06-28T00:29:02.642208,14.96328874,.00040003,9.9941,125.2894,71.3337,288.7311,0,U,56310,999,17442,-.216797E-6,.688E-5,0
SNIPE 4,2023-072B,2026-06-28T15:08:44.248416,15.42764500,.00038145,97.5239,26.0019,282.8989,77.1832,0,U,56744,999,17187,.41438976E-3,.18053E-3,0
SNIPE 2,2023-072C,2026-06-28T15:21:47.500704,15.47413741,.00031183,97.5231,29.1357,323.6197,36.4840,0,U,56745,999,17201,.46633346E-3,.23829E-3,0
2023-072G,2023-072G,2026-06-28T14:42:34.128000,15.51206195,.00016409,97.4885,27.9243,311.9102,48.2010,0,U,56749,999,17223,.48904575E-3,.28564E-3,0
GEISAT PRECURSOR,2023-084C,2026-06-28T15:05:40.468704,15.34802199,.00041454,97.6233,320.9599,308.5981,51.4890,0,U,56934,999,16928,.20449852E-3,.6816E-4,0
BLACKJACK ACES-3,2023-084U,2026-06-28T15:15:44.975808,15.18578021,.00015632,97.6222,314.9147,5.4962,354.6288,0,U,56950,999,16890,.23655905E-3,.482E-4,0
BLACKJACK ACES-2,2023-084Z,2026-06-28T15:24:17.045280,15.18615288,.00007795,97.6220,315.0052,116.6279,243.5034,0,U,56955,999,16891,.30838131E-3,.6313E-4,0
BLACKJACK ACES-1,2023-084AA,2026-06-28T15:06:55.056096,15.18593209,.00013021,97.6210,314.7654,126.3194,233.8160,0,U,56956,999,11863,.29673611E-3,.6068E-4,0
ION SCV-011,2023-084AB,2026-06-28T14:02:36.905568,15.28951270,.00071432,98.1375,7.9213,8.7455,351.3906,0,U,56957,999,16755,.1683459E-3,.4648E-4,0
GHOST-3,2023-084AC,2026-06-28T14:30:44.845344,15.48248213,.00059284,97.6222,328.7916,247.0683,112.9941,0,U,56958,999,16978,.31550918E-3,.16556E-3,0
AFR-1,2023-084AJ,2026-06-28T14:56:31.964352,15.28646854,.00091241,97.6285,316.5896,302.6208,57.4150,0,U,56964,999,16897,.15323356E-3,.4193E-4,0
METEOR-M2 3,2023-091A,2026-06-28T14:54:56.303136,14.24047672,.00048755,98.6078,234.3657,127.7726,232.3895,0,U,57166,999,15614,.18641655E-4,0,0
UMKA 1 (RS40S),2023-091G,2026-06-28T14:35:12.690528,15.20946434,.00142298,97.5049,238.2612,82.4085,277.8766,0,U,57172,999,16574,.25253342E-3,.5535E-4,0
2023-091H,2023-091H,2026-06-28T15:18:08.202816,15.28880003,.00110009,97.5050,242.9232,78.3346,281.9127,0,U,57173,999,16605,.38487796E-3,.10746E-3,0
2023-091J,2023-091J,2026-06-28T14:56:34.181376,15.14005486,.00148343,97.5053,232.5559,107.4367,252.8487,0,U,57174,999,16536,.21484429E-3,.3845E-4,0
CUBEBEL 2 (EU11S),2023-091K,2026-06-28T13:39:25.576128,15.29433784,.00110021,97.5052,242.8887,80.0170,280.2311,0,U,57175,999,16604,.43892604E-3,.12479E-3,0
SITRO-AIS 5 (KATYS),2023-091L,2026-06-28T14:00:45.470304,15.29711953,.00122688,97.5062,243.5928,67.9984,292.2558,0,U,57176,999,16608,.40661541E-3,.11658E-3,0
ZORKIY-2M 1,2023-091M,2026-06-28T14:14:36.287520,15.21048635,.0014681,97.5090,238.5228,79.7929,280.4961,0,U,57177,999,16573,.29278813E-3,.645E-4,0
CUBESX-HSE 3 (RS42S),2023-091N,2026-06-28T14:37:02.874720,15.31496155,.00113522,97.5093,245.3417,58.8645,301.3708,0,U,57178,999,16617,.41017848E-3,.12427E-3,0
MONITOR-3 (RS58S),2023-091Q,2026-06-28T14:14:34.128384,15.28066260,.00125936,97.5084,243.1239,65.2521,295.0027,0,U,57180,999,16603,.37593691E-3,.10241E-3,0
MONITOR-4 (RS57S),2023-091S,2026-06-28T13:43:29.934336,15.28150882,.00126182,97.5079,243.0740,65.6044,294.6511,0,U,57182,999,16603,.3645297E-3,.9953E-4,0
MONITOR-2 (RS39S),2023-091U,2026-06-28T13:51:42.933600,15.19012961,.00126508,97.5072,237.7870,76.6252,283.6392,0,U,57184,999,16568,.23684754E-3,.4899E-4,0
SVYATOBOR 1 (RS60S),2023-091X,2026-06-28T12:42:13.413024,15.26802562,.00103541,97.5091,243.4096,60.0493,300.1773,0,U,57187,999,16604,.33498493E-3,.8764E-4,0
HORS 1,2023-091Y,2026-06-28T12:20:14.444448,15.26913987,.00098145,97.5068,243.1551,60.2321,299.9892,0,U,57188,999,16604,.33535878E-3,.8803E-4,0
VIZARD-METEO (RS38S),2023-091Z,2026-06-28T14:41:11.260032,15.36381303,.00073392,97.5094,249.3278,41.7607,318.4196,0,U,57189,999,16644,.45063338E-3,.15934E-3,0
SITRO-AIS 6 (CHIRKIN),2023-091AC,2026-06-28T14:08:30.297120,15.26146922,.0012711,97.5068,242.6564,71.2571,289.0046,0,U,57192,999,16602,.38004617E-3,.9767E-4,0
SITRO-AIS 8 (ANOKHIN),2023-091AD,2026-06-28T13:56:21.832800,15.32436950,.00111863,97.5058,245.2249,64.2529,295.9866,0,U,57193,999,16619,.42290874E-3,.13199E-3,0
SITRO-AIS 7 (FARTUSHNIY),2023-091AE,2026-06-28T14:16:25.125600,15.25829642,.00126098,97.5065,242.4810,72.1824,288.0789,0,U,57194,999,16601,.37036224E-3,.9424E-4,0
AVION KALUGA 650,2023-091AF,2026-06-28T14:43:52.055616,15.20470623,.00117439,97.5089,239.1440,74.9040,285.3493,0,U,57195,999,16576,.23176465E-3,.4999E-4,0
HORS 2,2023-091AG,2026-06-28T14:15:55.187136,15.32173077,.00085598,97.5090,246.7807,53.0669,307.1355,0,U,57196,999,16627,.41571847E-3,.12855E-3,0
A-SEANSAT-PG1,2023-091AH,2026-06-28T14:22:03.263232,15.37344413,.00074108,97.5083,249.4253,49.7555,310.4336,0,U,57197,999,16646,.46503191E-3,.16967E-3,0
SITRO-AIS 10 (BURDAEV),2023-091AK,2026-06-28T13:32:11.740992,15.39028568,.00065477,97.5084,250.3804,44.7719,315.4054,0,U,57199,999,16651,.47443993E-3,.18286E-3,0
SITRO-AIS 9 (SHCHUKIN),2023-091AM,2026-06-28T14:15:29.458944,15.38532686,.00068096,97.5082,250.1321,44.5782,315.6010,0,U,57201,999,16650,.49437575E-3,.18754E-3,0
UTMN 2 (RS27S),2023-091AP,2026-06-28T14:53:26.021184,15.32323538,.00084725,97.5089,247.0010,48.7906,311.4065,0,U,57203,999,16629,.3829621E-3,.1189E-3,0
SITRO-AIS 12 (SMIRENNIY),2023-091AQ,2026-06-28T13:58:51.424896,15.38823417,.00063056,97.5095,250.5946,39.1695,321.0006,0,U,57204,999,16652,.46358788E-3,.17744E-3,0
SITRO-AIS 11 (SHEFFER),2023-091AU,2026-06-28T12:39:59.913792,15.39253785,.00061649,97.5092,250.7924,39.2758,320.8934,0,U,57208,999,16653,.48238445E-3,.1873E-3,0
H2SAT (HEINRICH HERTZ),2023-093A,2026-06-28T01:16:38.659872,1.00269588,.00012074,0.0401,105.2548,26.9649,163.7965,0,U,57213,999,1102,0,.13E-6,0
KUZGTU 1 (RS47S),2023-091AV,2026-06-28T14:38:54.517344,15.30116753,.00117343,97.5065,244.2077,62.3583,297.8847,0,U,57217,999,16612,.39470536E-3,.11454E-3,0
QIANKUN-1,2023-103B,2026-06-28T06:00:10.013760,16.07647770,.00348004,96.1475,223.3187,144.0163,216.3476,0,U,57422,999,16907,.35084656E-4,.30038E-3,.204894E-5
FENGYUN 3F,2023-111A,2026-06-28T14:25:25.014144,14.19940899,.00015293,98.6834,249.3969,84.9191,275.2161,0,U,57490,999,15048,.4210735E-4,.46E-6,0
METEOR 2-1 DEB,1975-064F,2026-06-28T05:09:29.622816,14.29507361,.00099025,81.2782,348.2119,46.6981,313.5025,0,U,57492,999,40456,.8388707E-3,.2156E-4,0
HJ-2F,2023-116A,2026-06-28T14:57:43.041312,15.22478861,.00085735,97.3838,184.6433,16.2043,343.9466,0,U,57519,999,16049,.32743159E-3,.7521E-4,0
XRISM,2023-137A,2026-06-28T14:34:42.713184,15.12561031,.00078083,31.0026,285.6227,78.9062,281.2455,0,U,57800,999,15459,.24053994E-3,.44E-4,0
METEOR-M2 4,2024-039A,2026-06-28T15:34:49.243584,14.22430621,.00078694,98.7015,138.8033,130.3004,229.8863,0,U,59051,999,12089,.18555471E-4,-.2E-7,0
GRBBETA,2024-128C,2026-06-28T13:39:03.264192,15.06704815,.00391744,61.9878,176.3313,137.0222,223.3943,0,U,60237,999,10798,.20587258E-3,.2905E-4,0
TRANSPORTER-11 OBJECT A,2024-149A,2026-06-28T04:26:12.608160,15.33081896,.00038608,97.3737,259.0808,159.6730,200.4667,0,U,60468,999,10374,.27430705E-3,.8691E-4,0
WARATAH SEED-1,2024-149B,2026-06-28T04:27:06.615936,15.36214694,.00024104,97.3694,259.7714,153.4391,206.6977,0,U,60469,999,10380,.37876057E-3,.13296E-3,0
PHISAT 2,2024-149C,2026-06-28T11:37:10.070976,15.31208466,.00021165,97.3761,258.6380,152.4808,207.6546,0,U,60470,999,10372,.22331694E-3,.6655E-4,0
LEMUR-2-TOMATOKECHUP,2024-149D,2026-06-28T13:43:46.657920,15.36261692,.00023896,97.3804,261.6486,154.0618,206.0746,0,U,60471,999,10391,.30098927E-3,.10561E-3,0
CONNECTA IOT-1,2024-149E,2026-06-28T10:59:29.252544,15.23623438,.0001249,97.3763,255.5590,180.7879,179.3356,0,U,60472,999,10351,.16039992E-3,.3771E-4,0
LOPEN,2024-149F,2026-06-28T12:03:46.525248,15.40005243,.00017109,97.3787,262.9604,163.5023,196.6279,0,U,60473,999,10400,.36783843E-3,.14605E-3,0
ROCK,2024-149G,2026-06-28T11:44:30.581376,15.39997173,.00020755,97.3782,262.9621,164.8415,195.2893,0,U,60474,999,10400,.35824376E-3,.14217E-3,0
CONNECTA IOT-3,2024-149H,2026-06-28T11:30:08.317152,15.23636242,.00023237,97.3737,255.3297,191.1476,168.9710,0,U,60475,999,10352,.17042142E-3,.4013E-4,0
QUBE,2024-149J,2026-06-28T05:33:03.980448,15.47718050,.00026097,97.3783,265.8804,166.3121,193.8200,0,U,60476,999,10417,.49144584E-3,.25389E-3,0
WREN-1,2024-149L,2026-06-28T11:49:06.353760,15.41990146,.00042087,97.3773,263.7259,203.2452,156.8605,0,U,60478,999,10406,.44619506E-3,.18954E-3,0
TOMORROW-S1,2024-149M,2026-06-28T11:53:37.044096,15.32873747,.00026956,97.3757,259.9327,173.3119,186.8160,0,U,60479,999,10382,.23024887E-3,.7233E-4,0
FLOCK 4BE-18,2024-149N,2026-06-28T04:15:36.218592,15.42198447,.00038907,97.3733,263.0234,194.5577,165.5558,0,U,60480,999,10400,.37027937E-3,.15817E-3,0
FLOCK 4BE-7,2024-149P,2026-06-28T04:41:44.958336,15.40751112,.00030605,97.3764,262.3608,194.3291,165.7869,0,U,60481,999,10394,.50098906E-3,.20435E-3,0
FLOCK 4BE-26,2024-149S,2026-06-28T12:26:35.876256,15.71506529,.00051367,97.3642,266.1339,195.9782,164.1320,0,U,60484,999,10424,.12767256E-2,.166015E-2,0
TOMORROW-S2,2024-149T,2026-06-28T11:03:12.097152,15.32910412,.00022326,97.3824,260.3973,196.5870,163.5300,0,U,60485,999,10381,.23540758E-3,.7405E-4,0
FLOCK 4BE-36,2024-149U,2026-06-28T11:12:39.468672,15.43050723,.00033634,97.3750,264.0324,202.3150,157.7952,0,U,60486,999,10409,.32234187E-3,.14153E-3,0
FLOCK 4BE-25,2024-149V,2026-06-28T12:45:22.094208,15.39120394,.00024376,97.3805,262.7600,181.6262,178.4976,0,U,60487,999,10398,.33330404E-3,.12845E-3,0
FLOCK 4BE-31,2024-149W,2026-06-28T11:42:22.450176,15.44522236,.00025665,97.3805,264.9435,194.5449,165.5726,0,U,60488,999,10412,.41315025E-3,.191E-3,0
FLOCK 4BE-20,2024-149X,2026-06-28T04:12:40.031712,15.38339947,.00035059,97.3699,261.2520,202.2079,157.9015,0,U,60489,999,10390,.40583283E-3,.1527E-3,0
